{
  "type": "FeatureCollection",
  "name": "DIY-Districts",
  "features": [
    {
      "type": "Feature",
      "id": 1,
      "properties": {
        "id_kecamatan": 1,
        "nama": "Kota Yogyakarta",
        "kabupaten": "Yogyakarta",
        "luas_km2": 32.50,
        "jumlah_penduduk": 417710,
        "latitude": -7.79560000,
        "longitude": 110.36950000
      },
      "geometry": {
        "type": "Polygon",
        "coordinates": [[
          [110.3495, -7.7856],
          [110.3895, -7.7856],
          [110.3895, -7.8056],
          [110.3495, -7.8056],
          [110.3495, -7.7856]
        ]]
      }
    },
    {
      "type": "Feature",
      "id": 2,
      "properties": {
        "id_kecamatan": 2,
        "nama": "Kabupaten Sleman",
        "kabupaten": "Sleman",
        "luas_km2": 574.82,
        "jumlah_penduduk": 1158440,
        "latitude": -7.59120000,
        "longitude": 110.40450000
      },
      "geometry": {
        "type": "Polygon",
        "coordinates": [
          [
            [110.1845, -7.3412],
            [110.6245, -7.3412],
            [110.6245, -7.8412],
            [110.1845, -7.8412],
            [110.1845, -7.3412]
          ],
          [
            [110.3495, -7.7856],
            [110.3495, -7.8056],
            [110.3895, -7.8056],
            [110.3895, -7.7856],
            [110.3495, -7.7856]
          ]
        ]
      }
    },
    {
      "type": "Feature",
      "id": 3,
      "properties": {
        "id_kecamatan": 3,
        "nama": "Kabupaten Bantul",
        "kabupaten": "Bantul",
        "luas_km2": 506.85,
        "jumlah_penduduk": 953738,
        "latitude": -7.98330000,
        "longitude": 110.31670000
      },
      "geometry": {
        "type": "Polygon",
        "coordinates": [[
          [110.15, -7.85],
          [110.45, -7.85],
          [110.45, -8.3],
          [110.15, -8.3],
          [110.15, -7.85]
        ]]
      }
    },
    {
      "type": "Feature",
      "id": 4,
      "properties": {
        "id_kecamatan": 4,
        "nama": "Kabupaten Gunung Kidul",
        "kabupaten": "Gunung Kidul",
        "luas_km2": 1485.31,
        "jumlah_penduduk": 713937,
        "latitude": -8.25470000,
        "longitude": 110.64280000
      },
      "geometry": {
        "type": "Polygon",
        "coordinates": [[
          [110.45, -8.0],
          [110.85, -8.0],
          [110.85, -8.5],
          [110.45, -8.5],
          [110.45, -8.0]
        ]]
      }
    },
    {
      "type": "Feature",
      "id": 5,
      "properties": {
        "id_kecamatan": 5,
        "nama": "Kabupaten Kulon Progo",
        "kabupaten": "Kulon Progo",
        "luas_km2": 586.27,
        "jumlah_penduduk": 385088,
        "latitude": -7.82750000,
        "longitude": 110.01830000
      },
      "geometry": {
        "type": "Polygon",
        "coordinates": [[
          [109.8, -7.5],
          [110.2, -7.5],
          [110.2, -8.2],
          [109.8, -8.2],
          [109.8, -7.5]
        ]]
      }
    }
  ]
}
